{"type": "FeatureCollection", "features": [ {"type": "Feature", "properties": {"norad_id": 39634, "name": "SENTINEL-1A", "group": "resource", "lat": 25.671915701569862, "lon": -176.21204131053224, "alt_km": 694.6179228788851, "timestamp": "2025-12-20T16:47:35.948439+00:00", "meta": {"OBJECT_NAME": "SENTINEL-1A", "OBJECT_ID": "2014-016A", "EPOCH": "2025-12-20T12:47:55.850784", "MEAN_MOTION": 14.59202545, "ECCENTRICITY": 0.0001279, "INCLINATION": 98.1795, "RA_OF_ASC_NODE": 359.6597, "ARG_OF_PERICENTER": 83.3049, "MEAN_ANOMALY": 276.8297, "EPHEMERIS_TYPE": 0, "CLASSIFICATION_TYPE": "U", "NORAD_CAT_ID": 39634, "ELEMENT_SET_NO": 999, "REV_AT_EPOCH": 62396, "BSTAR": 5.1756e-05, "MEAN_MOTION_DOT": 1.98e-06, "MEAN_MOTION_DDOT": 0}, "tle": {"line1": "1 39634U 14016A   25354.53328531  .00000198  00000+0  51756-4 0  9991", "line2": "2 39634  98.1795 359.6597 0001279  83.3049 276.8297 14.59202545623960"}}, "geometry": {"type": "Point", "coordinates": [-176.21204131053224, 25.671915701569862]}}, {"type": "Feature", "properties": {"norad_id": 39731, "name": "KAZEOSAT 1", "group": "resource", "lat": -1.9299124124748392, "lon": 66.71231269544654, "alt_km": 754.9945502327719, "timestamp": "2025-12-20T16:47:35.948449+00:00", "meta": {"OBJECT_NAME": "KAZEOSAT 1", "OBJECT_ID": "2014-024A", "EPOCH": "2025-12-20T11:48:23.773248", "MEAN_MOTION": 14.42067039, "ECCENTRICITY": 0.0001182, "INCLINATION": 98.3432, "RA_OF_ASC_NODE": 66.2259, "ARG_OF_PERICENTER": 96.5224, "MEAN_ANOMALY": 263.61, "EPHEMERIS_TYPE": 0, "CLASSIFICATION_TYPE": "U", "NORAD_CAT_ID": 39731, "ELEMENT_SET_NO": 999, "REV_AT_EPOCH": 61280, "BSTAR": 0.00010552, "MEAN_MOTION_DOT": 3.04e-06, "MEAN_MOTION_DDOT": 0}, "tle": {"line1": "1 39731U 14024A   25354.49194182  .00000304  00000+0  10552-3 0  9993", "line2": "2 39731  98.3432  66.2259 0001182  96.5224 263.6100 14.42067039612805"}}, "geometry": {"type": "Point", "coordinates": [66.71231269544654, -1.9299124124748392]}}, {"type": "Feature", "properties": {"norad_id": 39766, "name": "ALOS-2", "group": "resource", "lat": -51.74313213387967, "lon": -100.73973625529091, "alt_km": 638.676392091008, "timestamp": "2025-12-20T16:47:35.948459+00:00", "meta": {"OBJECT_NAME": "ALOS-2", "OBJECT_ID": "2014-029A", "EPOCH": "2025-12-20T12:29:59.623008", "MEAN_MOTION": 14.79472535, "ECCENTRICITY": 0.0001438, "INCLINATION": 97.9232, "RA_OF_ASC_NODE": 89.2567, "ARG_OF_PERICENTER": 96.8413, "MEAN_ANOMALY": 263.2962, "EPHEMERIS_TYPE": 0, "CLASSIFICATION_TYPE": "U", "NORAD_CAT_ID": 39766, "ELEMENT_SET_NO": 999, "REV_AT_EPOCH": 62516, "BSTAR": 0.00030814, "MEAN_MOTION_DOT": 2.251e-05, "MEAN_MOTION_DDOT": 0}, "tle": {"line1": "1 39766U 14029A   25354.52082897  .00002251  00000+0  30814-3 0  9995", "line2": "2 39766  97.9232  89.2567 0001438  96.8413 263.2962 14.79472535625166"}}, "geometry": {"type": "Point", "coordinates": [-100.73973625529091, -51.74313213387967]}}, {"type": "Feature", "properties": {"norad_id": 40010, "name": "KAZEOSAT 2", "group": "resource", "lat": -53.77415275252634, "lon": -150.96706115485344, "alt_km": 623.5215552076252, "timestamp": "2025-12-20T16:47:35.948470+00:00", "meta": {"OBJECT_NAME": "KAZEOSAT 2", "OBJECT_ID": "2014-033A", "EPOCH": "2025-12-20T12:11:15.364608", "MEAN_MOTION": 14.85177886, "ECCENTRICITY": 0.0008315, "INCLINATION": 97.5498, "RA_OF_ASC_NODE": 198.4207, "ARG_OF_PERICENTER": 179.6386, "MEAN_ANOMALY": 180.4837, "EPHEMERIS_TYPE": 0, "CLASSIFICATION_TYPE": "U", "NORAD_CAT_ID": 40010, "ELEMENT_SET_NO": 999, "REV_AT_EPOCH": 62243, "BSTAR": 1.648e-05, "MEAN_MOTION_DOT": 9.1e-07, "MEAN_MOTION_DDOT": 0}, "tle": {"line1": "1 40010U 14033A   25354.50781672  .00000091  00000+0  16480-4 0  9993", "line2": "2 40010  97.5498 198.4207 0008315 179.6386 180.4837 14.85177886622430"}}, "geometry": {"type": "Point", "coordinates": [-150.96706115485344, -53.77415275252634]}}, {"type": "Feature", "properties": {"norad_id": 40011, "name": "HODOYOSHI-4", "group": "resource", "lat": 77.90545201832927, "lon": 41.37244542067683, "alt_km": 593.9615717959005, "timestamp": "2025-12-20T16:47:35.948480+00:00", "meta": {"OBJECT_NAME": "HODOYOSHI-4", "OBJECT_ID": "2014-033B", "EPOCH": "2025-12-20T11:30:12.429792", "MEAN_MOTION": 14.87506831, "ECCENTRICITY": 0.0023797, "INCLINATION": 97.5405, "RA_OF_ASC_NODE": 182.9808, "ARG_OF_PERICENTER": 174.6822, "MEAN_ANOMALY": 185.4653, "EPHEMERIS_TYPE": 0, "CLASSIFICATION_TYPE": "U", "NORAD_CAT_ID": 40011, "ELEMENT_SET_NO": 999, "REV_AT_EPOCH": 62223, "BSTAR": 0.00015739, "MEAN_MOTION_DOT": 1.382e-05, "MEAN_MOTION_DDOT": 0}, "tle": {"line1": "1 40011U 14033B   25354.47931053  .00001382  00000+0  15739-3 0  9999", "line2": "2 40011  97.5405 182.9808 0023797 174.6822 185.4653 14.87506831622232"}}, "geometry": {"type": "Point", "coordinates": [41.37244542067683, 77.90545201832927]}}, {"type": "Feature", "properties": {"norad_id": 40013, "name": "DEIMOS-2", "group": "resource", "lat": 53.43048151223065, "lon": -140.14162617722906, "alt_km": 582.9077276404778, "timestamp": "2025-12-20T16:47:35.948490+00:00", "meta": {"OBJECT_NAME": "DEIMOS-2", "OBJECT_ID": "2014-033D", "EPOCH": "2025-12-20T13:20:05.208576", "MEAN_MOTION": 14.93007077, "ECCENTRICITY": 0.000148, "INCLINATION": 97.6069, "RA_OF_ASC_NODE": 230.0975, "ARG_OF_PERICENTER": 104.912, "MEAN_ANOMALY": 255.2264, "EPHEMERIS_TYPE": 0, "CLASSIFICATION_TYPE": "U", "NORAD_CAT_ID": 40013, "ELEMENT_SET_NO": 999, "REV_AT_EPOCH": 61106, "BSTAR": 0.00021352, "MEAN_MOTION_DOT": 2.165e-05, "MEAN_MOTION_DDOT": 0}, "tle": {"line1": "1 40013U 14033D   25354.55561584  .00002165  00000+0  21352-3 0  9996", "line2": "2 40013  97.6069 230.0975 0001480 104.9120 255.2264 14.93007077611061"}}, "geometry": {"type": "Point", "coordinates": [-140.14162617722906, 53.43048151223065]}}, {"type": "Feature", "properties": {"norad_id": 40015, "name": "HODOYOSHI-3", "group": "resource", "lat": -50.489719937858425, "lon": 169.532110315534, "alt_km": 620.2433856116004, "timestamp": "2025-12-20T16:47:35.948501+00:00", "meta": {"OBJECT_NAME": "HODOYOSHI-3", "OBJECT_ID": "2014-033F", "EPOCH": "2025-12-20T10:33:15.532704", "MEAN_MOTION": 14.84830501, "ECCENTRICITY": 0.0032237, "INCLINATION": 97.6204, "RA_OF_ASC_NODE": 159.9401, "ARG_OF_PERICENTER": 221.7025, "MEAN_ANOMALY": 138.1732, "EPHEMERIS_TYPE": 0, "CLASSIFICATION_TYPE": "U", "NORAD_CAT_ID": 40015, "ELEMENT_SET_NO": 999, "REV_AT_EPOCH": 62109, "BSTAR": 0.00014195, "MEAN_MOTION_DOT": 1.164e-05, "MEAN_MOTION_DDOT": 0}, "tle": {"line1": "1 40015U 14033F   25354.43976311  .00001164  00000+0  14195-3 0  9998", "line2": "2 40015  97.6204 159.9401 0032237 221.7025 138.1732 14.84830501621092"}}, "geometry": {"type": "Point", "coordinates": [169.532110315534, -50.489719937858425]}}, {"type": "Feature", "properties": {"norad_id": 40053, "name": "SPOT 7", "group": "resource", "lat": 61.41940833066582, "lon": 41.45691951191118, "alt_km": 683.760490423294, "timestamp": "2025-12-20T16:47:35.948511+00:00", "meta": {"OBJECT_NAME": "SPOT 7", "OBJECT_ID": "2014-034A", "EPOCH": "2025-12-20T11:34:34.892256", "MEAN_MOTION": 14.6074365, "ECCENTRICITY": 0.0001579, "INCLINATION": 98.0903, "RA_OF_ASC_NODE": 56.38, "ARG_OF_PERICENTER": 85.4072, "MEAN_ANOMALY": 274.731, "EPHEMERIS_TYPE": 0, "CLASSIFICATION_TYPE": "U", "NORAD_CAT_ID": 40053, "ELEMENT_SET_NO": 999, "REV_AT_EPOCH": 61104, "BSTAR": 0.00013397, "MEAN_MOTION_DOT": 6.08e-06, "MEAN_MOTION_DDOT": 0}, "tle": {"line1": "1 40053U 14034A   25354.48234829  .00000608  00000+0  13397-3 0  9992", "line2": "2 40053  98.0903  56.3800 0001579  85.4072 274.7310 14.60743650611045"}}, "geometry": {"type": "Point", "coordinates": [41.45691951191118, 61.41940833066582]}}, {"type": "Feature", "properties": {"norad_id": 40072, "name": "SKYSAT-B", "group": "resource", "lat": 38.33409431734321, "lon": -67.85267383088804, "alt_km": 603.2769610751438, "timestamp": "2025-12-20T16:47:35.948521+00:00", "meta": {"OBJECT_NAME": "SKYSAT-B", "OBJECT_ID": "2014-037D", "EPOCH": "2025-12-20T10:09:39.391776", "MEAN_MOTION": 14.87352271, "ECCENTRICITY": 0.0006621, "INCLINATION": 98.3622, "RA_OF_ASC_NODE": 298.5355, "ARG_OF_PERICENTER": 128.6134, "MEAN_ANOMALY": 231.5674, "EPHEMERIS_TYPE": 0, "CLASSIFICATION_TYPE": "U", "NORAD_CAT_ID": 40072, "ELEMENT_SET_NO": 999, "REV_AT_EPOCH": 61938, "BSTAR": 0.0001398, "MEAN_MOTION_DOT": 1.202e-05, "MEAN_MOTION_DDOT": 0}, "tle": {"line1": "1 40072U 14037D   25354.42337259  .00001202  00000+0  13980-3 0  9990", "line2": "2 40072  98.3622 298.5355 0006621 128.6134 231.5674 14.87352271619387"}}, "geometry": {"type": "Point", "coordinates": [-67.85267383088804, 38.33409431734321]}}, {"type": "Feature", "properties": {"norad_id": 40115, "name": "WORLDVIEW-3 (WV-3)", "group": "resource", "lat": -48.10666372713511, "lon": -121.99681199867837, "alt_km": 621.5611155814286, "timestamp": "2025-12-20T16:47:35.948531+00:00", "meta": {"OBJECT_NAME": "WORLDVIEW-3 (WV-3)", "OBJECT_ID": "2014-048A", "EPOCH": "2025-12-20T10:54:51.111936", "MEAN_MOTION": 14.84663942, "ECCENTRICITY": 0.0001796, "INCLINATION": 97.8771, "RA_OF_ASC_NODE": 66.6396, "ARG_OF_PERICENTER": 136.5059, "MEAN_ANOMALY": 223.6297, "EPHEMERIS_TYPE": 0, "CLASSIFICATION_TYPE": "U", "NORAD_CAT_ID": 40115, "ELEMENT_SET_NO": 999, "REV_AT_EPOCH": 61538, "BSTAR": 9.7643e-05, "MEAN_MOTION_DOT": 7.73e-06, "MEAN_MOTION_DDOT": 0}, "tle": {"line1": "1 40115U 14048A   25354.45475824  .00000773  00000+0  97643-4 0  9995", "line2": "2 40115  97.8771  66.6396 0001796 136.5059 223.6297 14.84663942615381"}}, "geometry": {"type": "Point", "coordinates": [-121.99681199867837, -48.10666372713511]}}]}